GLOBALSTAR M084         
1 38040U 11080A   25102.59469832 -.00000109  00000+0 -30569-4 0  9999
2 38040  52.0001 248.1608 0000526 130.2121 329.6529 12.62264762614383
GLOBALSTAR M080         
1 38041U 11080B   25102.47225672 -.00000109  00000+0 -27464-4 0  9999
2 38041  52.0054 250.1172 0000769 147.8043 235.6874 12.62291759614494
GLOBALSTAR M082         
1 38042U 11080C   25102.56231167 -.00000087  00000+0  94130-4 0  9994
2 38042  52.0068 205.2819 0000781  88.1970 284.7573 12.62265014615216
GLOBALSTAR M092         
1 38043U 11080D   25102.62107316 -.00000062  00000+0  23061-3 0  9997
2 38043  52.0085 295.4768 0000729  95.0491 305.5216 12.62262749613673
GLOBALSTAR M090         
1 38044U 11080E   25102.61661384 -.00000082  00000+0  12327-3 0  9992
2 38044  51.9879 199.0098 0000667 109.0335  30.4969 12.62268970615338
GLOBALSTAR M086         
1 38045U 11080F   25102.64312291 -.00000079  00000+0  13703-3 0  9991
2 38045  51.9892 199.4748 0001303 155.4172 345.0477 12.62269193615283
GLOBALSTAR M097         
1 39072U 13005A   25102.48044257 -.00000083  00000+0  11524-3 0  9991
2 39072  52.0022 114.4488 0000481 108.6813 251.4106 12.62271755562510
GLOBALSTAR M093         
1 39073U 13005B   25102.45375969 -.00000086  00000+0  10085-3 0  9990
2 39073  51.9789 107.9358 0000444 101.0320 259.0596 12.62263675562464
